0 COSMOS 2251 DEB
1 38481U 93036BTR 13283.66250207  .00001143  00000-0  83900-3 0   498
2 38481 073.9349 026.1992 0259636 136.4222 225.7207 13.81956501203369
0 COSMOS 2251 DEB
1 38481U 93036BTR 13288.94693018  .00001235  00000-0  90836-3 0   505
2 38481 073.9384 017.2670 0257927 126.1909 236.3490 13.81970692204091
0 COSMOS 2251 DEB
1 38481U 93036BTR 13294.88276364  .00001279  00000-0  93978-3 0   515
2 38481 073.9401 007.2376 0257951 115.0169 247.8204 13.81986758204916
